ASNARO-2                
1 43152U 18007A   26160.29874360  .00008403  00000+0  36628-3 0  9997
2 43152  97.3978 167.3490 0001621  87.3329 272.8093 15.22429323466215
JILIN-1 07              
1 43159U 18008E   26160.26854654  .00008159  00000+0  24535-3 0  9998
2 43159  97.1778 180.4088 0010232  88.4797 271.7618 15.34589605463789
JILIN-1 08              
1 43160U 18008F   26160.32891487  .00004972  00000+0  15520-3 0  9995
2 43160  97.1809 179.7922 0008066 101.2459 258.9691 15.33619072463740
S-NET D                 
1 43186U 18014G   26160.28071682  .00004827  00000+0  25029-3 0  9996
2 43186  97.5367  65.1205 0009601  54.2452 305.9672 15.16597743457565
S-NET B                 
1 43187U 18014H   26160.29201531  .00004709  00000+0  24445-3 0  9996
2 43187  97.5374  65.1181 0010130  49.5298 310.6817 15.16567439457564
S-NET A                 
1 43188U 18014J   26160.27963641  .00004722  00000+0  24485-3 0  9991
2 43188  97.5382  65.3131 0010053  50.2402 309.9715 15.16605463457569
S-NET C                 
1 43189U 18014K   26160.29585110  .00004535  00000+0  23556-3 0  9995
2 43189  97.5401  65.4029 0011245  42.9291 317.2818 15.16559026456116
PAZ                     
1 43215U 18020A   26160.26868502  .00001740  00000+0  86052-4 0  9994
2 43215  97.4448 167.7671 0001724  87.4163 272.7269 15.19144756459805
GOES 17                 
1 43226U 18022A   26160.25287104 -.00000166  00000+0  00000+0 0  9996
2 43226   0.9160  85.8579 0000575  13.4824 159.8381  1.00271569 30342
LKW-4                   
1 43236U 18025A   26160.19941176  .00039621  00000+0  46061-3 0  9997
2 43236  97.6343 330.4515 0001857 335.5927  24.5241 15.61638604458788
ZHUHAI-1 OVS-02         
1 43440U 18040B   26160.29181400  .00006299  00000+0  25569-3 0  9993
2 43440  97.0395 177.9901 0001562 300.4171  59.6914 15.24918545451518
ZHUHAI-1 OHS-02         
1 43441U 18040C   26160.28130119  .00007104  00000+0  28063-3 0  9992
2 43441  97.0379 184.9119 0007390 253.8651 106.1775 15.25765719113072
GAOFEN-6                
1 43484U 18048A   26160.07493644  .00000804  00000+0  12207-3 0  9992
2 43484  97.7757 223.0567 0011378 194.8499 165.2379 14.76624229432191
LUOJIA-1 01             
1 43485U 18048B   26160.30264196  .00001896  00000+0  21631-3 0  9990
2 43485  97.8095 238.6168 0009842 140.3812 219.8125 14.87255515433045
PAKTES 1A               
1 43529U 18056A   26160.26190065  .00002927  00000+0  24524-3 0  9996
2 43529  98.1306 316.4104 0022425 130.9513 229.3655 14.99072971430736
PRSS-1                  
1 43530U 18056B   26160.29020238  .00001258  00000+0  16506-3 0  9992
2 43530  97.7817 228.3786 0001765  77.1394 283.0016 14.81978530427269
HAIYANG-1C              
1 43609U 18068A   26160.29165566  .00000194  00000+0  84569-4 0  9999
2 43609  98.5185 232.7138 0011973 115.2487 244.9940 14.34177122405952
SSTL S1-4               
1 43618U 18071A   26160.26348601  .00001530  00000+0  14067-3 0  9993
2 43618  97.5037  32.2071 0001434 103.6614 256.4767 14.96186220421758
HAIYANG-2B              
1 43655U 18081A   26160.25627924  .00000178  00000+0  21660-3 0  9996
2 43655  99.3290 169.1325 0000773  17.1368 342.9810 13.79309357383836
CFOSAT                  
1 43662U 18083A   26160.30699812  .00002955  00000+0  15579-3 0  9994
2 43662  97.3607 165.0704 0002432  96.5085 263.6425 15.16325203421241
TEN-KOH                 
1 43677U 18084G   26160.26748399  .00002153  00000+0  16518-3 0  9995
2 43677  98.0785 352.2972 0010679 138.8831 221.3200 15.02910423414973
DIWATA-2B               
1 43678U 18084H   26160.30062250  .00002189  00000+0  17912-3 0  9994
2 43678  98.1173 356.1669 0012059 196.0288 164.0555 15.00413961415035
STARS-AO                
1 43679U 18084J   26160.09234840  .00004870  00000+0  25054-3 0  9992
2 43679  98.0518  13.5653 0002331 155.2034 204.9310 15.16961708416244
AUTCUBE 2               
1 43681U 18084K   26160.07996522  .00002518  00000+0  15909-3 0  9990
2 43681  98.0722   5.8251 0010415  73.7906 286.4467 15.10034261415703
METOP-C                 
1 43689U 18087A   26160.25503990  .00000078  00000+0  55251-4 0  9998
2 43689  98.6646 220.0033 0001467 138.4112 221.7178 14.21509944393708
ES'HAIL 2               
1 43700U 18090A   26160.20434111  .00000161  00000+0  00000+0 0  9999
2 43700   0.0163 288.9745 0001916 188.7115 239.2727  1.00273583 27591
MOHAMMED VI-B           
1 43717U 18095A   26160.31894902  .00000959  00000+0  14288-3 0  9994
2 43717  97.9551 232.7522 0001196  91.2332 268.9016 14.77109322407021
HYSIS                   
1 43719U 18096A   26160.29417669  .00001433  00000+0  20259-3 0  9998
2 43719  97.9837 227.1039 0001718 111.1160 249.0235 14.78681629406255
COSMOS 2530 (RODNIK-S *)
1 43751U 18097A   26160.24650418  .00000065  00000+0  39975-3 0  9996
2 43751  82.5141 227.2082 0020478  56.2747 304.0281 12.42881230341308
