OBJECT_NAME,OBJECT_ID,EPOCH,MEAN_MOTION,ECCENTRICITY,INCLINATION,RA_OF_ASC_NODE,ARG_OF_PERICENTER,MEAN_ANOMALY,EPHEMERIS_TYPE,CLASSIFICATION_TYPE,NORAD_CAT_ID,ELEMENT_SET_NO,REV_AT_EPOCH,BSTAR,MEAN_MOTION_DOT,MEAN_MOTION_DDOT
ASNARO-2,2018-007A,2026-06-09T07:10:11.447040,15.22429323,.00016216,97.3978,167.3490,87.3329,272.8093,0,U,43152,999,46621,.36628471E-3,.8403E-4,0
JILIN-1 07,2018-008E,2026-06-09T06:26:42.421056,15.34589605,.00102329,97.1778,180.4088,88.4797,271.7618,0,U,43159,999,46378,.24535037E-3,.8159E-4,0
JILIN-1 08,2018-008F,2026-06-09T07:53:38.244768,15.33619072,.00080662,97.1809,179.7922,101.2459,258.9691,0,U,43160,999,46374,.15520097E-3,.4972E-4,0
S-NET D,2018-014G,2026-06-09T06:44:13.933248,15.16597743,.00096015,97.5367,65.1205,54.2452,305.9672,0,U,43186,999,45756,.25029347E-3,.4827E-4,0
S-NET B,2018-014H,2026-06-09T07:00:30.122784,15.16567439,.001013,97.5374,65.1181,49.5298,310.6817,0,U,43187,999,45756,.24445406E-3,.4709E-4,0
S-NET A,2018-014J,2026-06-09T06:42:40.585824,15.16605463,.00100534,97.5382,65.3131,50.2402,309.9715,0,U,43188,999,45756,.24484812E-3,.4722E-4,0
S-NET C,2018-014K,2026-06-09T07:06:01.535040,15.16559026,.00112456,97.5401,65.4029,42.9291,317.2818,0,U,43189,999,45611,.23555557E-3,.4535E-4,0
PAZ,2018-020A,2026-06-09T06:26:54.385728,15.19144756,.00017241,97.4448,167.7671,87.4163,272.7269,0,U,43215,999,45980,.86051667E-4,.174E-4,0
GOES 17,2018-022A,2026-06-09T06:04:08.057856,1.00271569,.00005754,0.9160,85.8579,13.4824,159.8381,0,U,43226,999,3034,0,-.166E-5,0
LKW-4,2018-025A,2026-06-09T04:47:09.176064,15.61638604,.00018575,97.6343,330.4515,335.5927,24.5241,0,U,43236,999,45878,.46060749E-3,.39621E-3,0
ZHUHAI-1 OVS-02,2018-040B,2026-06-09T07:00:12.729600,15.24918545,.0001562,97.0395,177.9901,300.4171,59.6914,0,U,43440,999,45151,.25569222E-3,.6299E-4,0
ZHUHAI-1 OHS-02,2018-040C,2026-06-09T06:45:04.422816,15.25765719,.00073909,97.0379,184.9119,253.8651,106.1775,0,U,43441,999,11307,.28062697E-3,.7104E-4,0
GAOFEN-6,2018-048A,2026-06-09T01:47:54.508416,14.76624229,.0011378,97.7757,223.0567,194.8499,165.2379,0,U,43484,999,43219,.12207314E-3,.804E-5,0
LUOJIA-1 01,2018-048B,2026-06-09T07:15:48.265344,14.87255515,.00098424,97.8095,238.6168,140.3812,219.8125,0,U,43485,999,43304,.21631233E-3,.1896E-4,0
PAKTES 1A,2018-056A,2026-06-09T06:17:08.216160,14.99072971,.00224255,98.1306,316.4104,130.9513,229.3655,0,U,43529,999,43073,.24524342E-3,.2927E-4,0
PRSS-1,2018-056B,2026-06-09T06:57:53.485632,14.81978530,.00017658,97.7817,228.3786,77.1394,283.0016,0,U,43530,999,42726,.16505603E-3,.1258E-4,0
HAIYANG-1C,2018-068A,2026-06-09T06:59:59.049024,14.34177122,.00119731,98.5185,232.7138,115.2487,244.9940,0,U,43609,999,40595,.84569286E-4,.194E-5,0
SSTL S1-4,2018-071A,2026-06-09T06:19:25.191264,14.96186220,.00014349,97.5037,32.2071,103.6614,256.4767,0,U,43618,999,42175,.14067063E-3,.153E-4,0
HAIYANG-2B,2018-081A,2026-06-09T06:09:02.526336,13.79309357,.00007732,99.3290,169.1325,17.1368,342.9810,0,U,43655,999,38383,.21660016E-3,.178E-5,0
CFOSAT,2018-083A,2026-06-09T07:22:04.637568,15.16325203,.0002432,97.3607,165.0704,96.5085,263.6425,0,U,43662,999,42124,.15578636E-3,.2955E-4,0
TEN-KOH,2018-084G,2026-06-09T06:25:10.616736,15.02910423,.00106792,98.0785,352.2972,138.8831,221.3200,0,U,43677,999,41497,.16517862E-3,.2153E-4,0
DIWATA-2B,2018-084H,2026-06-09T07:12:53.784000,15.00413961,.00120598,98.1173,356.1669,196.0288,164.0555,0,U,43678,999,41503,.17912008E-3,.2189E-4,0
STARS-AO,2018-084J,2026-06-09T02:12:58.901760,15.16961708,.00023312,98.0518,13.5653,155.2034,204.9310,0,U,43679,999,41624,.25053987E-3,.487E-4,0
AUTCUBE 2,2018-084K,2026-06-09T01:55:08.995008,15.10034261,.00104156,98.0722,5.8251,73.7906,286.4467,0,U,43681,999,41570,.1590927E-3,.2518E-4,0
METOP-C,2018-087A,2026-06-09T06:07:15.447360,14.21509944,.00014678,98.6646,220.0033,138.4112,221.7178,0,U,43689,999,39370,.55251425E-4,.78E-6,0
ES'HAIL 2,2018-090A,2026-06-09T04:54:15.071904,1.00273583,.0001916,0.0163,288.9745,188.7115,239.2727,0,U,43700,999,2759,0,.161E-5,0
MOHAMMED VI-B,2018-095A,2026-06-09T07:39:17.195328,14.77109322,.00011967,97.9551,232.7522,91.2332,268.9016,0,U,43717,999,40702,.14287704E-3,.959E-5,0
HYSIS,2018-096A,2026-06-09T07:03:36.866016,14.78681629,.00017181,97.9837,227.1039,111.1160,249.0235,0,U,43719,999,40625,.20258912E-3,.1433E-4,0
COSMOS 2530 (RODNIK-S 16),2018-097A,2026-06-09T05:54:57.961152,12.42881230,.00204781,82.5141,227.2082,56.2747,304.0281,0,U,43751,999,34130,.39975279E-3,.65E-6,0
